STARLINK-30528          
1 57967U 23151D   26068.07017937 -.00001903  00000+0 -59648-4 0  9992
2 57967  43.0001 339.3327 0001339 277.3865  82.6834 15.27575133135670
FLOCK 4G-1              
1 62666U 25009BK  26068.75951132  .00013534  00000+0  50654-3 0  9995
2 62666  97.4059 151.3158 0003180 323.1401  36.9619 15.27421081 63725
