[{"OBJECT_NAME":"STARLINK-30528","OBJECT_ID":"2023-151D","EPOCH":"2026-03-09T01:41:03.497568","MEAN_MOTION":15.27575133,"ECCENTRICITY":0.00013391,"INCLINATION":43.0001,"RA_OF_ASC_NODE":339.3327,"ARG_OF_PERICENTER":277.3865,"MEAN_ANOMALY":82.6834,"EPHEMERIS_TYPE":0,"CLASSIFICATION_TYPE":"U","NORAD_CAT_ID":57967,"ELEMENT_SET_NO":999,"REV_AT_EPOCH":13567,"BSTAR":-5.9647529e-5,"MEAN_MOTION_DOT":-1.903e-5,"MEAN_MOTION_DDOT":0},{"OBJECT_NAME":"FLOCK 4G-1","OBJECT_ID":"2025-009BK","EPOCH":"2026-03-09T18:13:41.778912","MEAN_MOTION":15.27421081,"ECCENTRICITY":0.00031801,"INCLINATION":97.4059,"RA_OF_ASC_NODE":151.3158,"ARG_OF_PERICENTER":323.1401,"MEAN_ANOMALY":36.9619,"EPHEMERIS_TYPE":0,"CLASSIFICATION_TYPE":"U","NORAD_CAT_ID":62666,"ELEMENT_SET_NO":999,"REV_AT_EPOCH":6372,"BSTAR":0.00050653644,"MEAN_MOTION_DOT":0.00013534,"MEAN_MOTION_DDOT":0}]
